[
    {
        "Altitude(m)": 624792.7488318705,
        "Argument of Periapsis(deg)": 0.0,
        "Eccentricity": 0.0,
        "Inclination(deg)": 60.0,
        "Latitude(deg)": -59.14701711535987,
        "Longitude(deg)": 144.0262687617728,
        "Mean Anomaly(deg)": -98.18179999999998,
        "RAAN(deg)": 350.0,
        "Satellite Name": "Test1 1556",
        "Satellite Number": 1556,
        "Semi-Major Axis(m)": 6980739.136638005,
        "Time(s)": 0
    },
    {
        "Altitude(m)": 624842.1414532794,
        "Argument of Periapsis(deg)": 0.00010418945913296404,
        "Eccentricity": 0.0,
        "Inclination(deg)": 60.0,
        "Latitude(deg)": -59.28910230366008,
        "Longitude(deg)": 145.15576976667504,
        "Mean Anomaly(deg)": -97.56169385453813,
        "RAAN(deg)": 349.99957995086027,
        "Satellite Name": "Test1 1556",
        "Satellite Number": 1556,
        "Semi-Major Axis(m)": 6980739.136638005,
        "Time(s)": 10
    }
]